KUIPER-00089            
1 64834U 25151U   25317.03473756  .00008773  00000+0  11835-2 0  9996
2 64834  51.9016  81.2640 0001431 263.8500  96.2299 14.79748097 18241
KUIPER-00090            
1 64835U 25151V   25317.33334491  .00035555  00000+0  26033-2 0  9996
2 64835  51.8941  72.9996 0004421 291.6134 339.5313 15.03230949  5610
KUIPER-00091            
1 64836U 25151W   25317.33334491  .00056607  00000+0  75358-2 0  9992
2 64836  51.9004  77.6101 0008237 265.1794 150.2529 14.79100922  4962
KUIPER-00092            
1 64837U 25151X   25317.24261651 -.00072085  00000+0 -98297-2 0  9997
2 64837  51.9005  85.4585 0006596 209.1307 150.9288 14.78604074 19412
KUIPER-00093            
1 64838U 25151Y   25316.36740663  .00013101  00000+0  17395-2 0  9997
2 64838  51.8983  91.8747 0013804 218.2770 141.7214 14.79988191 18033
KUIPER-00094            
1 64839U 25151Z   25316.62900293  .00020686  00000+0  14966-2 0  9991
2 64839  51.8899  80.6744 0005370 241.3265 118.7168 15.03965562 18215
KUIPER-00081            
1 65132U 25171A   25317.33334491 -.00587322  00000+0 -19441-1 0  9999
2 65132  51.8755 311.4355 0005305  87.9056 171.7587 15.33232468  5053
KUIPER-00088            
1 65133U 25171B   25317.33334491  .00007833  00000+0  95527-3 0  9993
2 65133  51.8991 320.1363 0008498  92.1324 172.0783 14.84108063  1308
